[{"OBJECT_NAME":"EDISON-1","OBJECT_ID":"2025-009B","EPOCH":"2026-03-09T19:16:13.822464","MEAN_MOTION":15.29042904,"ECCENTRICITY":0.00043285,"INCLINATION":97.4042,"RA_OF_ASC_NODE":151.6286,"ARG_OF_PERICENTER":306.4185,"MEAN_ANOMALY":53.6655,"EPHEMERIS_TYPE":0,"CLASSIFICATION_TYPE":"U","NORAD_CAT_ID":62610,"ELEMENT_SET_NO":999,"REV_AT_EPOCH":6375,"BSTAR":0.00052814963,"MEAN_MOTION_DOT":0.00014835,"MEAN_MOTION_DDOT":0},{"OBJECT_NAME":"STARLINK-35932","OBJECT_ID":"2025-265L","EPOCH":"2026-03-08T15:20:09.391776","MEAN_MOTION":15.27602763,"ECCENTRICITY":3.232e-5,"INCLINATION":42.9979,"RA_OF_ASC_NODE":283.7947,"ARG_OF_PERICENTER":336.752,"MEAN_ANOMALY":23.3317,"EPHEMERIS_TYPE":0,"CLASSIFICATION_TYPE":"U","NORAD_CAT_ID":66526,"ELEMENT_SET_NO":999,"REV_AT_EPOCH":1695,"BSTAR":0.001494568,"MEAN_MOTION_DOT":0.00041123,"MEAN_MOTION_DDOT":0}]
